[{"OBJECT_NAME":"STARLINK-1686","OBJECT_ID":"2020-062D","EPOCH":"2026-03-09T22:36:24.211296","MEAN_MOTION":15.70442116,"ECCENTRICITY":0.00055257,"INCLINATION":53.0437,"RA_OF_ASC_NODE":313.2055,"ARG_OF_PERICENTER":281.1531,"MEAN_ANOMALY":78.8864,"EPHEMERIS_TYPE":0,"CLASSIFICATION_TYPE":"U","NORAD_CAT_ID":46328,"ELEMENT_SET_NO":999,"REV_AT_EPOCH":30522,"BSTAR":0.00099254031,"MEAN_MOTION_DOT":0.0012535,"MEAN_MOTION_DDOT":0},{"OBJECT_NAME":"STARLINK-11539 [DTC]","OBJECT_ID":"2025-031G","EPOCH":"2026-03-09T04:27:28.229760","MEAN_MOTION":15.70860057,"ECCENTRICITY":0.00014688,"INCLINATION":42.9999,"RA_OF_ASC_NODE":4.4506,"ARG_OF_PERICENTER":307.5936,"MEAN_ANOMALY":52.4798,"EPHEMERIS_TYPE":0,"CLASSIFICATION_TYPE":"U","NORAD_CAT_ID":62987,"ELEMENT_SET_NO":999,"REV_AT_EPOCH":6266,"BSTAR":0.0012280857,"MEAN_MOTION_DOT":0.00160342,"MEAN_MOTION_DDOT":0}]
